0165P         2000 05 13.7174  6.879174  0.615096  125.9699    0.8536   15.8952  20211005  11.5  2.0  165P/LINEAR                                              MPC 75721
0166P         2002 05 19.2384  8.514173  0.383793  321.4728   64.4263   15.3719  20211005   5.5  4.0  166P/NEAT                                                MPC 75722
0167P         2001 05 12.3283 11.813982  0.271754  344.5919  295.6704   19.1181  20211005   9.5  2.0  167P/CINEOS                                              MPC 75722
0168P         2019 08  5.4490  1.357610  0.621021   15.0002  355.4519   21.6231  20211005  15.5  4.0  168P/Hergenrother                                        MPC102101
0169P         2022 07  9.6988  0.602874  0.768246  218.0478  176.1081   11.2989  20211005  16.0  2.0  169P/NEAT                                                MPEC 2021-N06
0170P         2023 04 21.1656  2.923201  0.303874  225.6315  142.9226   10.1250  20211005  12.0  4.0  170P/Christensen                                         MPEC 2021-O56
0171P         2019 01 13.2380  1.771714  0.501637  347.0681  101.6935   21.9355  20211005  13.5  4.0  171P/Spahr                                               MPC102102
0172P         2025 11  4.6065  3.348834  0.205254  209.4084   30.8879   11.2273  20211005  13.0  4.0  172P/Yeung                                               MPEC 2021-BE3
0173P         2021 12 16.8368  4.217036  0.260893   29.1943  100.4019   16.4937  20211005   7.5  4.0  173P/Mueller                                             MPEC 2021-S45
0174P         2015 04 25.6587  5.818157  0.457446  163.1508  173.2092    4.3435  20211005   9.4  2.0  174P/Echeclus                                            MPC 92985
0175P         2019 10  8.3321  1.958028  0.435583   58.0547  123.1927    5.9898  20211005  14.0  4.0  175P/Hergenrother                                        MPC114608
0176P         2022 11 23.0210  2.578118  0.193109   34.8610  345.9452    0.2347  20211005  15.1  2.0  176P/LINEAR                                              MPC 89015
0177P         2006 09  3.9110  1.091451  0.955334   60.2957  272.1960   31.2533  20211005  15.0  4.0  177P/Barnard                                             MPEC 2020-L06
0178P         2020 07 16.6826  1.880958  0.482132  297.7936  102.8699   11.0883  20211005  14.6  4.0  178P/Hug-Bell                                            MPEC 2021-F20
0179P         2022 05 29.7454  4.118118  0.306014  296.8393  115.5172   19.8979  20211005   2.5  8.0  179P/Jedicke                                             MPC 75723
0180P         2023 07 12.6171  2.499762  0.353017   94.7745   84.5698   16.8650  20211005  11.0  4.0  180P/NEAT                                                MPC100284
0181P         2022 01  8.7528  1.159813  0.700640  336.2320   35.4068   17.4855  20211005  11.5  4.0  181P/Shoemaker-Levy                                      MPC 89012
0182P         2022 05 12.2405  0.994048  0.663189   54.2060   72.4690   16.2251  20211005  18.0  4.0  182P/LONEOS                                              MPEC 2014-J10
0183P         2017 12  4.0119  3.946190  0.133463  167.1761    4.3144   18.8578  20211005  12.5  2.0  183P/Korlevic-Juric                                      MPEC 2021-S45
0184P         2020 10 26.2433  1.703558  0.551037  186.4717  173.2479    4.5733  20211005  13.5  4.0  184P/Lovas                                               MPEC 2020-W26
0185P         2023 07 13.0366  0.931525  0.699383  181.8739  214.1020   14.0094  20211005  15.0  4.0  185P/Petriew                                             MPC109593
0186P         2019 02 11.5802  4.309677  0.121700  274.3785  326.6320   28.8557  20211005   7.5  4.0  186P/Garradd                                             MPEC 2021-S45
0187P         2018 05 14.5140  3.874144  0.152041  131.7710  109.9147   13.6342  20211005   9.0  4.0  187P/LINEAR                                              MPEC 2020-SI8
0188P         2026 04 12.9799  2.553648  0.416101   26.5638  358.9648   10.5256  20211005  11.5  4.0  188P/LINEAR-Mueller                                      MPC106349
0189P         2022 08 28.8163  1.211641  0.588748   16.3035  281.7267   20.0689  20211005  19.0  4.0  189P/NEAT                                                MPC106349
0190P         2024 12 24.3106  2.025154  0.521628   50.2878  335.5780    2.1743  20211005  13.0  4.0  190P/Mueller                                             MPEC 2020-K19
0191P         2021 03 20.1616  2.232259  0.385856  284.0241   98.2328    8.8426  20211005  13.0  4.0  191P/McNaught                                            MPEC 2021-S45
0192P         2024 05 24.3779  1.467706  0.773331  312.9836   51.6167   24.5652  20211005  15.0  4.0  192P/Shoemaker-Levy                                      MPC 75724
0193P         2021 08 25.2591  2.168037  0.394190    8.0982  335.1743   10.6885  20211005  14.0  4.0  193P/LINEAR-NEAT                                         MPEC 2021-S45
0194P         2024 01 30.8763  1.665989  0.583743  131.4630  350.0378   11.7303  20211005  16.0  4.0  194P/LINEAR                                              MPC 98566
0195P         2025 07 27.9394  4.465499  0.313466  249.2785  243.1238   36.3329  20211005   8.5  4.0  195P/Hill                                                MPEC 2021-S45
0196P         2022 10 29.7400  2.173374  0.428589   12.1789   24.1516   19.2924  20211005  13.5  4.0  196P/Tichy                                               MPC 92985
0197P         2022 12  7.6859  1.062475  0.629514  188.7511   66.3780   25.5316  20211005  16.5  2.0  197P/LINEAR                                              MPC 94676
0198P         2018 12 13.8578  2.002278  0.443545   69.1794  358.2541    1.3387  20211005   9.0  4.0  198P/ODAS                                                NK   1596
0199P         2023 08  7.9989  2.910835  0.505945  191.6963   92.3742   24.9319  20211005  10.0  4.0  199P/Shoemaker                                           MPC 75725
0200P         2019 07 29.3533  3.298089  0.332651  134.1260  234.7826   12.0995  20211005   9.0  4.0  200P/Larsen                                              MPEC 2021-F20
0201P         2021 05 26.6768  1.217354  0.637048   41.5457   19.7471    5.7390  20211005  14.0  4.0  201P/LONEOS                                              MPC 93588
0202P         2024 05 23.6575  2.990729  0.264701  277.1374  177.8618    2.0913  20211005  13.5  4.0  202P/Scotti                                              MPEC 2021-N06
0203P         2020 03  4.6656  3.198382  0.315213  154.7921  290.3387    2.9728  20211005  14.5  2.0  203P/Korlevic                                            MPEC 2021-S45
0204P         2022 11 16.4962  1.836732  0.488191  356.4045  108.5613    6.5982  20211005  14.0  4.0  204P/LINEAR-NEAT                                         MPC 98566
0205P         2022 01 13.4263  1.530082  0.568118  154.2091  179.6050   15.3045  20211005  13.0  4.0  205P/Giacobini                                           MPC 98566
0206P         2021 03  4.5130  1.564793  0.551389  189.4824  202.3426   33.6333  20211005  19.0  4.0  206P/Barnard-Boattini                                    MPC 75725
0207P         2024 01 31.8666  0.932746  0.759096  273.0041  198.3296   10.1872  20211005  16.0  4.0  207P/NEAT                                                MPC 75725
0208P         2024 08 23.2935  2.532118  0.373977  310.4785   36.3426    4.4113  20211005  12.5  4.0  208P/McMillan                                            MPEC 2020-W26
0209P         2019 06 12.4341  0.967825  0.673029  152.4595   62.7739   21.2556  20211005  17.0  2.0  209P/LINEAR                                              MPC 90771
0210P         2020 04  7.8893  0.527602  0.833248  345.8940   93.8277   10.2637  20211005  13.5  4.0  210P/Christensen                                         MPC105242
0211P         2022 10  4.5959  2.328042  0.343470    4.2673  117.1320   18.9212  20211005  12.5  4.0  211P/Hill                                                MPC 96868
0212P         2024 04 25.2987  1.602945  0.587915   14.0800   98.2701   22.2242  20211005  17.0  2.0  212P/NEAT                                                MPEC 2021-F20
0213P         2023 11 11.1619  1.980764  0.408277    5.6621  311.2984   10.3822  20211005  10.5  4.0  213P/Van Ness                                            MPC114608
0214P         2022 09 26.3055  1.860591  0.485794  190.2232  348.2491   15.1834  20211005  13.0  4.0  214P/LINEAR                                              MPC 92986
0215P         2019 11 19.0166  3.606675  0.166743  262.2175   56.6850   10.5803  20211005  11.0  4.0  215P/NEAT                                                MPEC 2021-S45
0216P         2024 01  7.2379  2.138383  0.447055  151.3694  359.8093    9.0620  20211005  13.0  4.0  216P/LINEAR                                              MPC100284
0217P         2025 05 24.6134  1.228800  0.688931  246.8535  125.4740   12.8641  20211005  12.0  4.0  217P/LINEAR                                              MPEC 2021-N06
0218P         2020 10  3.7880  1.168664  0.622132   59.7326  175.9681    2.7276  20211005  16.0  4.0  218P/LINEAR                                              MPEC 2020-K19
0219P         2024 02 13.3677  2.357079  0.354065  107.4605  230.9628   11.5335  20211005  11.0  4.0  219P/LINEAR                                              MPC100284
0220P         2020 12 10.6367  1.552599  0.501718  180.5453  150.1013    8.1289  20211005  15.0  4.0  220P/McNaught                                            MPEC 2021-BE3
0221P         2021 12 18.0667  1.753140  0.492654   40.1140  229.7029   11.4276  20211005  14.5  4.0  221P/LINEAR                                              MPEC 2021-J28
0222P         2019 06  5.4393  0.827110  0.714717  346.2521    6.7773    5.0980  20211005  20.0  4.0  222P/LINEAR                                              MPC 92277
